OBJECT_NAME,OBJECT_ID,EPOCH,MEAN_MOTION,ECCENTRICITY,INCLINATION,RA_OF_ASC_NODE,ARG_OF_PERICENTER,MEAN_ANOMALY,EPHEMERIS_TYPE,CLASSIFICATION_TYPE,NORAD_CAT_ID,ELEMENT_SET_NO,REV_AT_EPOCH,BSTAR,MEAN_MOTION_DOT,MEAN_MOTION_DDOT
UTMN 2 (RS27S),2023-091AP,2026-03-01T12:34:55.460928,15.29191901,.0009943,97.5223,126.4143,101.5636,258.6720,0,U,57203,999,14807,.59965E-3,.16954E-3,0
KUZGTU 1 (RS47S),2023-091AV,2026-03-01T13:07:03.504576,15.27195768,.0012967,97.5208,124.0703,115.4287,244.8295,0,U,57217,999,14793,.57857E-3,.15401E-3,0
SONATE-2,2024-043Q,2026-03-01T09:37:30.883296,15.50586910,.000784,97.5380,204.9371,235.6854,124.3656,0,U,59112,999,11114,.72816E-3,.4177E-3,0
MESAT1,2024-125G,2026-03-01T12:25:50.305440,15.52734404,.0011218,97.2470,276.2804,254.9072,105.0940,0,U,60209,999,9280,.7656E-3,.47518E-3,0
OOV-CUBE (TUBSAT-30),2024-128F,2026-03-01T12:12:36.444096,15.02173136,.0055212,61.9932,240.8886,110.7559,249.9460,0,U,60240,999,8993,.31364E-3,.4072E-4,0
COLIBRI-S (RS67S),2024-199M,2026-03-01T10:47:30.008832,15.42994145,.0008294,97.3180,293.5727,321.2345,38.8306,0,U,61746,999,12077,.59437E-3,.26187E-3,0
HORS 3 (RS81S),2024-199U,2026-03-01T12:02:32.141760,15.47714696,.0006431,97.3148,294.6747,329.4356,30.6518,0,U,61753,999,12086,.73413E-3,.38054E-3,0
HORS 4 (RS82S),2024-199V,2026-03-01T10:55:13.129248,15.50394813,.0006207,97.3127,295.2926,326.4000,33.6857,0,U,61754,999,12090,.80655E-3,.4597E-3,0
HORIZON (RS59S),2024-199Y,2026-03-01T10:55:30.061056,15.67764834,.0003512,97.3100,298.9049,305.6661,54.4273,0,U,61757,999,12113,.1213E-2,.134671E-2,0
ARCTICSAT 1 (RS74S),2024-199AD,2026-03-01T10:42:24.721344,15.63863448,.0003883,97.3118,298.4679,301.0995,58.9883,0,U,61762,999,12110,.11195E-2,.106045E-2,0
SIT-2086,2024-199AF,2026-03-01T10:40:15.300192,15.47157935,.0006411,97.3143,295.3565,308.3270,51.7403,0,U,61764,999,11774,.55674E-3,.28251E-3,0
RUZAEVKA 390 (RS44S),2024-199AH,2026-02-28T22:29:06.115776,15.97522590,.0001231,97.2908,301.5637,151.2351,208.8995,0,U,61766,999,11812,.1622E-2,.713136E-2,.22596E-3
HYPERVIEW 1G (RS66S),2024-199AP,2026-03-01T11:13:32.587392,15.56695916,.0007406,97.3110,296.3321,322.3939,37.6797,0,U,61772,999,11782,.94086E-3,.67565E-3,0
ALTAIR (RS65S),2024-199AW,2026-03-01T11:41:35.933280,15.34771255,.0012869,97.3201,290.6080,340.0899,19.9840,0,U,61779,999,12058,.45111E-3,.15178E-3,0
ASRTU-1 (AO-123),2024-199AY,2026-03-01T11:05:08.856384,15.33862312,.0013637,97.3176,290.1244,341.9594,18.1163,0,U,61781,999,11740,.34556E-3,.11276E-3,0
TUSUR GO (RS78S),2024-199AZ,2026-03-01T11:17:31.231104,15.68090162,.0004733,97.3053,297.9310,322.4347,37.6583,0,U,61782,999,11793,.13043E-2,.146991E-2,0
SAMSAT-IONOSPHERE (RS75S),2024-199BB,2026-03-01T11:12:49.070304,15.48770553,.0009453,97.3136,294.4202,328.9621,31.1070,0,U,61784,999,12084,.77345E-3,.41654E-3,0
RTU MIREA 1 (RS51S),2024-199BC,2026-03-01T11:24:06.299424,15.50590047,.0009168,97.3134,294.8495,325.0197,35.0452,0,U,61785,999,11772,.82745E-3,.47541E-3,0
TEVEL2-4,2025-052D,2026-02-28T16:08:54.119904,15.30471958,.00043303,97.4043,316.1259,112.3510,247.8190,0,U,63213,999,5349,.70825117E-3,.20832E-3,0
TEVEL2-5,2025-052E,2026-03-01T06:31:04.815264,15.30382546,.0004355,97.4041,316.6972,111.9591,248.2113,0,U,63214,999,5358,.74098E-3,.21741E-3,0
TEVEL2-6,2025-052F,2026-03-01T11:27:22.351392,15.30350670,.0004466,97.4041,316.8888,111.9746,248.1969,0,U,63215,999,5361,.78427E-3,.22997E-3,0
TEVEL2-1,2025-052H,2026-03-01T05:04:55.064352,15.29931347,.0004202,97.4016,316.3638,122.3760,237.7888,0,U,63217,999,5356,.72507E-3,.20976E-3,0
TEVEL2-3,2025-052J,2026-03-01T06:35:53.297088,15.29968078,.0004241,97.4020,316.4377,122.7546,237.4103,0,U,63218,999,5357,.74709E-3,.21642E-3,0
TEVEL2-2,2025-052K,2026-03-01T06:40:04.010880,15.29936157,.0004176,97.4018,316.4308,122.6943,237.4701,0,U,63219,999,5357,.74325E-3,.21508E-3,0
TEVEL2-9,2025-052AD,2026-03-01T06:09:54.190080,15.28250971,.0007077,97.4080,315.9942,148.6196,211.5468,0,U,63237,999,5352,.7302E-3,.20071E-3,0
TEVEL2-7,2025-052AE,2026-03-01T11:26:06.700416,15.28049764,.0007316,97.4083,316.1669,148.3368,211.8313,0,U,63238,999,5355,.72123E-3,.19702E-3,0
TEVEL2-8,2025-052AF,2026-03-01T05:18:51.012000,15.28017325,.0007204,97.4082,315.8947,149.5961,210.5697,0,U,63239,999,5351,.69743E-3,.19029E-3,0
HADES-ICM,2025-052BN,2026-03-01T06:29:32.558208,15.54234589,.0007933,97.3979,320.4275,128.0875,232.1095,0,U,63492,999,5383,.20333E-2,.134665E-2,0
INNOSAT 16 (RS92S7),2025-155C,2026-03-01T10:39:34.914240,15.24023674,.0009947,97.4444,28.0990,194.4182,165.6773,0,U,64878,999,6425,.38773E-3,.9342E-4,0
GEOSCAN 6 (RS92S6),2025-155D,2026-03-01T11:06:32.907168,15.27712298,.0007503,97.4442,28.8547,182.0265,178.0945,0,U,64879,999,6430,.55133E-3,.1488E-3,0
